{"type": "FeatureCollection", "features": [ {"type": "Feature", "properties": {"norad_id": 61186, "name": "BEIDOU-3 M25 (C47)", "group": "beidou", "lat": -51.51387833688218, "lon": -168.60223510176314, "alt_km": 21523.509631884444, "timestamp": "2025-12-27T11:23:20.163137+00:00", "meta": {"OBJECT_NAME": "BEIDOU-3 M25 (C47)", "OBJECT_ID": "2024-168B", "EPOCH": "2025-12-27T04:57:33.161184", "MEAN_MOTION": 1.86229887, "ECCENTRICITY": 0.0005389, "INCLINATION": 54.629, "RA_OF_ASC_NODE": 308.2197, "ARG_OF_PERICENTER": 300.5492, "MEAN_ANOMALY": 133.5608, "EPHEMERIS_TYPE": 0, "CLASSIFICATION_TYPE": "U", "NORAD_CAT_ID": 61186, "ELEMENT_SET_NO": 999, "REV_AT_EPOCH": 858, "BSTAR": 0, "MEAN_MOTION_DOT": -6e-07, "MEAN_MOTION_DDOT": 0}, "tle": {"line1": "1 61186U 24168B   25361.20663381 -.00000060  00000+0  00000+0 0  9994", "line2": "2 61186  54.6290 308.2197 0005389 300.5492 133.5608  1.86229887  8586"}}, "geometry": {"type": "Point", "coordinates": [-168.60223510176314, -51.51387833688218]}}, {"type": "Feature", "properties": {"norad_id": 61187, "name": "BEIDOU-3 M27 (C49)", "group": "beidou", "lat": 23.050579168673906, "lon": -34.2430723676332, "alt_km": 21520.52775728905, "timestamp": "2025-12-27T11:23:20.163148+00:00", "meta": {"OBJECT_NAME": "BEIDOU-3 M27 (C49)", "OBJECT_ID": "2024-168C", "EPOCH": "2025-12-26T02:09:38.712960", "MEAN_MOTION": 1.86230112, "ECCENTRICITY": 0.00025351, "INCLINATION": 54.6256, "RA_OF_ASC_NODE": 308.2421, "ARG_OF_PERICENTER": 341.7609, "MEAN_ANOMALY": 198.677, "EPHEMERIS_TYPE": 0, "CLASSIFICATION_TYPE": "U", "NORAD_CAT_ID": 61187, "ELEMENT_SET_NO": 999, "REV_AT_EPOCH": 603, "BSTAR": 0, "MEAN_MOTION_DOT": -5.6e-07, "MEAN_MOTION_DDOT": 0}, "tle": {"line1": "1 61187U 24168C   25360.09003140 -.00000056  00000+0  00000+0 0  9997", "line2": "2 61187  54.6256 308.2421 0002535 341.7609 198.6770  1.86230112  6039"}}, "geometry": {"type": "Point", "coordinates": [-34.2430723676332, 23.050579168673906]}}]}